start=new Date('2022-03-14T00:00:00.000Z').valueOf();
sats=[{"RCS_SIZE":"LARGE","OBJECT_TYPE":"PAYLOAD","OBJECT_ID":"2021-040C","COUNTRY_CODE":"US","INCLINATION":"53.0524","MEAN_MOTION_DDOT":"0.0000000000000","DECAY_DATE":null,"NORAD_CAT_ID":"48430","PERIOD":"95.594","MEAN_ANOMALY":"136.0614","REF_FRAME":"TEME","BSTAR":"0.00061136000000","APOAPSIS":"548.295","CENTER_NAME":"EARTH","MEAN_ELEMENT_THEORY":"SGP4","TLE_LINE1":"1 48430U 21040C   22072.91668981  .00008830  00000-0  61136-3 0  9996","REV_AT_EPOCH":"4868","GP_ID":"198663046","SEMIMAJOR_AXIS":"6925.431","ECCENTRICITY":"0.00014420","EPHEMERIS_TYPE":"0","CLASSIFICATION_TYPE":"U","MEAN_MOTION_DOT":"0.00008830","OBJECT_NAME":"STARLINK-2729","TIME_SYSTEM":"UTC","MEAN_MOTION":"15.06373065","FILE":"3358210","EPOCH":"2022-03-13T22:00:01.999584","ELEMENT_SET_NO":"999","LAUNCH_DATE":"2021-05-09","TLE_LINE2":"2 48430  53.0524 216.3318 0001442  64.2302 136.0614 15.06373065 48685","SITE":"AFETR","ARG_OF_PERICENTER":"64.2302","PERIAPSIS":"546.297","RA_OF_ASC_NODE":"216.3318"},{"INCLINATION":"53.0527","COUNTRY_CODE":"US","NORAD_CAT_ID":"48431","MEAN_MOTION_DDOT":"0.0000000000000","DECAY_DATE":null,"RCS_SIZE":"LARGE","OBJECT_TYPE":"PAYLOAD","OBJECT_ID":"2021-040D","SEMIMAJOR_AXIS":"6925.404","GP_ID":"198662586","TLE_LINE1":"1 48431U 21040D   22072.91668981 -.00019565  00000-0 -12988-2 0  9996","REV_AT_EPOCH":"4792","BSTAR":"-0.00129880000000","REF_FRAME":"TEME","MEAN_ANOMALY":"50.7596","PERIOD":"95.593","MEAN_ELEMENT_THEORY":"SGP4","CENTER_NAME":"EARTH","APOAPSIS":"548.231","CLASSIFICATION_TYPE":"U","OBJECT_NAME":"STARLINK-2700","MEAN_MOTION_DOT":"-0.00019565","ECCENTRICITY":"0.00013890","EPHEMERIS_TYPE":"0","SITE":"AFETR","TLE_LINE2":"2 48431  53.0527 211.3210 0001389  77.0369  50.7596 15.06381913 47928","LAUNCH_DATE":"2021-05-09","PERIAPSIS":"546.307","RA_OF_ASC_NODE":"211.3210","ARG_OF_PERICENTER":"77.0369","MEAN_MOTION":"15.06381913","TIME_SYSTEM":"UTC","ELEMENT_SET_NO":"999","EPOCH":"2022-03-13T22:00:01.999584","FILE":"3358212"},{"GP_ID":"198662576","SEMIMAJOR_AXIS":"6925.281","REV_AT_EPOCH":"4815","TLE_LINE1":"1 48432U 21040E   22072.91668981 -.00035087  00000-0 -23469-2 0  9990","BSTAR":"-0.00234690000000","MEAN_ANOMALY":"7.9665","PERIOD":"95.591","REF_FRAME":"TEME","APOAPSIS":"548.021","MEAN_ELEMENT_THEORY":"SGP4","CENTER_NAME":"EARTH","COUNTRY_CODE":"US","INCLINATION":"53.0538","NORAD_CAT_ID":"48432","DECAY_DATE":null,"MEAN_MOTION_DDOT":"0.0000000000000","RCS_SIZE":"LARGE","OBJECT_TYPE":"PAYLOAD","OBJECT_ID":"2021-040E","TLE_LINE2":"2 48432  53.0538 206.3323 0001264  67.3794   7.9665 15.06422006 48152","SITE":"AFETR","LAUNCH_DATE":"2021-05-09","ARG_OF_PERICENTER":"67.3794","RA_OF_ASC_NODE":"206.3323","PERIAPSIS":"546.271","MEAN_MOTION":"15.06422006","TIME_SYSTEM":"UTC","EPOCH":"2022-03-13T22:00:01.999584","FILE":"3358212","ELEMENT_SET_NO":"999","CLASSIFICATION_TYPE":"U","OBJECT_NAME":"STARLINK-2680","MEAN_MOTION_DOT":"-0.00035087","ECCENTRICITY":"0.00012640","EPHEMERIS_TYPE":"0"},{"COUNTRY_CODE":"US","INCLINATION":"53.0536","MEAN_MOTION_DDOT":"0.0000000000000","DECAY_DATE":null,"NORAD_CAT_ID":"48433","OBJECT_TYPE":"PAYLOAD","RCS_SIZE":"LARGE","OBJECT_ID":"2021-040F","REV_AT_EPOCH":"4808","TLE_LINE1":"1 48433U 21040F   22072.91668981  .00014289  00000-0  97708-3 0  9998","SEMIMAJOR_AXIS":"6925.450","GP_ID":"198662587","PERIOD":"95.594","MEAN_ANOMALY":"230.6547","REF_FRAME":"TEME","BSTAR":"0.00097708000000","APOAPSIS":"548.200","MEAN_ELEMENT_THEORY":"SGP4","CENTER_NAME":"EARTH","CLASSIFICATION_TYPE":"U","MEAN_MOTION_DOT":"0.00014289","OBJECT_NAME":"STARLINK-2699","ECCENTRICITY":"0.00012780","EPHEMERIS_TYPE":"0","LAUNCH_DATE":"2021-05-09","TLE_LINE2":"2 48433  53.0536 211.3230 0001278  77.1503 230.6547 15.06367035 48082","SITE":"AFETR","ARG_OF_PERICENTER":"77.1503","RA_OF_ASC_NODE":"211.3230","PERIAPSIS":"546.430","TIME_SYSTEM":"UTC","MEAN_MOTION":"15.06367035","EPOCH":"2022-03-13T22:00:01.999584","FILE":"3358212","ELEMENT_SET_NO":"999"},{"RCS_SIZE":"LARGE","OBJECT_TYPE":"PAYLOAD","OBJECT_ID":"2021-040G","INCLINATION":"53.0522","COUNTRY_CODE":"US","NORAD_CAT_ID":"48434","DECAY_DATE":null,"MEAN_MOTION_DDOT":"0.0000000000000","BSTAR":"0.00164010000000","REF_FRAME":"TEME","MEAN_ANOMALY":"181.3557","PERIOD":"95.595","MEAN_ELEMENT_THEORY":"SGP4","CENTER_NAME":"EARTH","APOAPSIS":"548.389","GP_ID":"198662581","SEMIMAJOR_AXIS":"6925.488","TLE_LINE1":"1 48434U 21040G   22072.91668981  .00024202  00000-0  16401-2 0  9995","REV_AT_EPOCH":"4786","ECCENTRICITY":"0.00014960","EPHEMERIS_TYPE":"0","CLASSIFICATION_TYPE":"U","OBJECT_NAME":"STARLINK-2692","MEAN_MOTION_DOT":"0.00024202","MEAN_MOTION":"15.06354604","TIME_SYSTEM":"UTC","ELEMENT_SET_NO":"999","EPOCH":"2022-03-13T22:00:01.999584","FILE":"3358212","SITE":"AFETR","TLE_LINE2":"2 48434  53.0522 216.3343 0001496  78.8100 181.3557 15.06354604 47867","LAUNCH_DATE":"2021-05-09","RA_OF_ASC_NODE":"216.3343","PERIAPSIS":"546.317","ARG_OF_PERICENTER":"78.8100"},{"RCS_SIZE":"LARGE","OBJECT_TYPE":"PAYLOAD","OBJECT_ID":"2021-040H","COUNTRY_CODE":"US","INCLINATION":"53.0538","NORAD_CAT_ID":"48435","DECAY_DATE":null,"MEAN_MOTION_DDOT":"0.0000000000000","BSTAR":"0.00022252000000","MEAN_ANOMALY":"301.5704","PERIOD":"95.695","REF_FRAME":"TEME","APOAPSIS":"553.227","CENTER_NAME":"EARTH","MEAN_ELEMENT_THEORY":"SGP4","GP_ID":"198662612","SEMIMAJOR_AXIS":"6930.331","REV_AT_EPOCH":"4853","TLE_LINE1":"1 48435U 21040H   22072.84449310  .00002897  00000-0  22252-3 0  9999","ECCENTRICITY":"0.00014880","EPHEMERIS_TYPE":"0","CLASSIFICATION_TYPE":"U","OBJECT_NAME":"STARLINK-2633","MEAN_MOTION_DOT":"0.00002897","MEAN_MOTION":"15.04775750","TIME_SYSTEM":"UTC","EPOCH":"2022-03-13T20:16:04.203840","FILE":"3358214","ELEMENT_SET_NO":"999","TLE_LINE2":"2 48435  53.0538 226.5073 0001488  58.5429 301.5704 15.04775750 48530","SITE":"AFETR","LAUNCH_DATE":"2021-05-09","ARG_OF_PERICENTER":"58.5429","RA_OF_ASC_NODE":"226.5073","PERIAPSIS":"551.165"},{"NORAD_CAT_ID":"48436","DECAY_DATE":null,"MEAN_MOTION_DDOT":"0.0000000000000","INCLINATION":"53.0542","COUNTRY_CODE":"US","OBJECT_ID":"2021-040J","OBJECT_TYPE":"PAYLOAD","RCS_SIZE":"LARGE","SEMIMAJOR_AXIS":"6925.333","GP_ID":"198688890","REV_AT_EPOCH":"4704","TLE_LINE1":"1 48436U 21040J   22072.84710589  .00000960  00000-0  83350-4 0  9995","CENTER_NAME":"EARTH","MEAN_ELEMENT_THEORY":"SGP4","APOAPSIS":"548.308","BSTAR":"0.00008335000000","REF_FRAME":"TEME","PERIOD":"95.592","MEAN_ANOMALY":"286.0806","OBJECT_NAME":"STARLINK-2639","MEAN_MOTION_DOT":"0.00000960","CLASSIFICATION_TYPE":"U","EPHEMERIS_TYPE":"0","ECCENTRICITY":"0.00016030","RA_OF_ASC_NODE":"241.6318","PERIAPSIS":"546.088","ARG_OF_PERICENTER":"74.0359","SITE":"AFETR","TLE_LINE2":"2 48436  53.0542 241.6318 0001603  74.0359 286.0806 15.06405004 47049","LAUNCH_DATE":"2021-05-09","ELEMENT_SET_NO":"999","EPOCH":"2022-03-13T20:19:49.948896","FILE":"3358388","MEAN_MOTION":"15.06405004","TIME_SYSTEM":"UTC"},{"OBJECT_TYPE":"PAYLOAD","RCS_SIZE":"LARGE","OBJECT_ID":"2021-040K","INCLINATION":"53.0509","COUNTRY_CODE":"US","NORAD_CAT_ID":"48437","MEAN_MOTION_DDOT":"0.0000000000000","DECAY_DATE":null,"BSTAR":"0.00001967000000","REF_FRAME":"TEME","MEAN_ANOMALY":"298.4172","PERIOD":"95.592","MEAN_ELEMENT_THEORY":"SGP4","CENTER_NAME":"EARTH","APOAPSIS":"548.353","GP_ID":"198688148","SEMIMAJOR_AXIS":"6925.336","TLE_LINE1":"1 48437U 21040K   22072.89778699  .00000011  00000-0  19670-4 0  9998","REV_AT_EPOCH":"4691","ECCENTRICITY":"0.00016640","EPHEMERIS_TYPE":"0","CLASSIFICATION_TYPE":"U","OBJECT_NAME":"STARLINK-2642","MEAN_MOTION_DOT":"0.00000011","MEAN_MOTION":"15.06404192","TIME_SYSTEM":"UTC","ELEMENT_SET_NO":"999","FILE":"3358388","EPOCH":"2022-03-13T21:32:48.795936","SITE":"AFETR","TLE_LINE2":"2 48437  53.0509 251.4168 0001664  61.6985 298.4172 15.06404192 46914","LAUNCH_DATE":"2021-05-09","PERIAPSIS":"546.048","RA_OF_ASC_NODE":"251.4168","ARG_OF_PERICENTER":"61.6985"},{"CLASSIFICATION_TYPE":"U","OBJECT_NAME":"STARLINK-2640","MEAN_MOTION_DOT":"-0.00001045","ECCENTRICITY":"0.00020140","EPHEMERIS_TYPE":"0","TLE_LINE2":"2 48438  53.0534 241.6633 0002014  53.0065 307.1108 15.06398068 47041","SITE":"AFETR","LAUNCH_DATE":"2021-05-09","ARG_OF_PERICENTER":"53.0065","RA_OF_ASC_NODE":"241.6633","PERIAPSIS":"545.825","MEAN_MOTION":"15.06398068","TIME_SYSTEM":"UTC","EPOCH":"2022-03-13T20:14:31.938144","FILE":"3358388","ELEMENT_SET_NO":"999","COUNTRY_CODE":"US","INCLINATION":"53.0534","NORAD_CAT_ID":"48438","MEAN_MOTION_DDOT":"0.0000000000000","DECAY_DATE":null,"OBJECT_TYPE":"PAYLOAD","RCS_SIZE":"LARGE","OBJECT_ID":"2021-040L","GP_ID":"198687896","SEMIMAJOR_AXIS":"6925.354","REV_AT_EPOCH":"4704","TLE_LINE1":"1 48438U 21040L   22072.84342521 -.00001045  00000-0 -51220-4 0  9992","BSTAR":"-0.00005122000000","PERIOD":"95.592","MEAN_ANOMALY":"307.1108","REF_FRAME":"TEME","APOAPSIS":"548.614","MEAN_ELEMENT_THEORY":"SGP4","CENTER_NAME":"EARTH"},{"MEAN_MOTION_DOT":"-0.00001159","OBJECT_NAME":"STARLINK-2583","CLASSIFICATION_TYPE":"U","EPHEMERIS_TYPE":"0","ECCENTRICITY":"0.00013750","RA_OF_ASC_NODE":"241.9794","PERIAPSIS":"546.242","ARG_OF_PERICENTER":"64.9961","LAUNCH_DATE":"2021-05-09","SITE":"AFETR","TLE_LINE2":"2 48439  53.0535 241.9794 0001375  64.9961 295.1171 15.06406179 47037","ELEMENT_SET_NO":"999","FILE":"3358388","EPOCH":"2022-03-13T18:33:40.650624","TIME_SYSTEM":"UTC","MEAN_MOTION":"15.06406179","DECAY_DATE":null,"MEAN_MOTION_DDOT":"0.0000000000000","NORAD_CAT_ID":"48439","INCLINATION":"53.0535","COUNTRY_CODE":"US","OBJECT_ID":"2021-040M","RCS_SIZE":"LARGE","OBJECT_TYPE":"PAYLOAD","TLE_LINE1":"1 48439U 21040M   22072.77338716 -.00001159  00000-0 -58937-4 0  9994","REV_AT_EPOCH":"4703","GP_ID":"198688643","SEMIMAJOR_AXIS":"6925.330","MEAN_ELEMENT_THEORY":"SGP4","CENTER_NAME":"EARTH","APOAPSIS":"548.147","REF_FRAME":"TEME","MEAN_ANOMALY":"295.1171","PERIOD":"95.592","BSTAR":"-0.00005893700000"}];
